GLOBALSTAR M057 [-]     
1 25943U 99058A   23221.27566958 -.00000105  00000+0 -10955-3 0  9992
2 25943  51.9981 112.0082 0003270  55.8123 304.3036 12.24772595 83934
GLOBALSTAR M059 [-]     
1 25944U 99058B   23223.03496720 -.00000053  00000+0  41676-3 0  9993
2 25944  51.9978 236.3363 0000307  87.8044 287.7444 11.99952826 81627
GLOBALSTAR M056 [-]     
1 25945U 99058C   23223.41230086 -.00000058  00000+0  33897-3 0  9998
2 25945  51.9928 254.6408 0000890 253.3505 120.2921 12.04767597 81217
GLOBALSTAR M031 [-]     
1 25946U 99058D   23223.68777929 -.00000128  00000+0 -38232-3 0  9997
2 25946  51.9933 186.6134 0001515 255.6688 276.1223 12.15994415 82609
GLOBALSTAR M039 [-]     
1 25961U 99062A   23223.10835835 -.00000071  00000+0  18180-3 0  9993
2 25961  51.9830 167.8084 0002761 297.7882  62.2705 12.62267929 94869
GLOBALSTAR M034 [-]     
1 25962U 99062B   23222.39378031 -.00000079  00000+0  30366-4 0  9993
2 25962  51.9896 330.6080 0014210 200.5935 203.6917 11.79413746 58516
GLOBALSTAR M029 [-]     
1 25963U 99062C   23223.99650462 -.00000084  00000+0  31407-4 0  9995
2 25963  51.9801 122.3455 0001967 236.4894 137.1604 11.99866406 88123
GLOBALSTAR M061 [-]     
1 25964U 99062D   23223.27132309 -.00000069  00000+0  18931-3 0  9991
2 25964  51.9778 143.4058 0005768 130.2450  39.4506 11.76749439 41891
